NORAD_CAT_ID,OBJECT_NAME,OBJECT_TYPE,EPOCH,MEAN_MOTION,ECCENTRICITY,INCLINATION,RA_OF_ASC_NODE,ARG_OF_PERICENTER,MEAN_ANOMALY,BSTAR,MEAN_MOTION_DOT,MEAN_MOTION_DDOT,TLE_LINE0,TLE_LINE1,TLE_LINE2,SEMIMAJOR_AXIS,PERIOD,APOGEE,PERIGEE,DECAYED
53278.0,STARLINK-4180,PAYLOAD,2022-10-24 14:00:01,15.08834778,0.0001993,53.2182,315.2633,43.3894,100.4382,0.0012955,0.00020387,0.0,0 STARLINK-4180,1 53278U 22086AN  22297.58334491  .00020387  00000-0  12955-2 0  9996,2 53278  53.2182 315.2633 0001993  43.3894 100.4382 15.08834778  1307,6917.896,95.438,541.14,538.383,0.0
53278.0,STARLINK-4180,PAYLOAD,2022-10-24 22:00:00,15.08825533,0.0001792,53.2181,313.7652,49.1057,106.3268,0.0028811,0.00045845,0.0,0 STARLINK-4180,1 53278U 22086AN  22297.91667824  .00045845  00000-0  28811-2 0  9996,2 53278  53.2181 313.7652 0001792  49.1057 106.3268 15.08825533  1309,6917.925,95.438,541.029,538.55,0.0
53278.0,STARLINK-4180,PAYLOAD,2022-10-25 14:00:01,15.08866476,0.0002003,53.2177,310.7739,44.8251,133.8177,-0.00059624,-9.772e-05,0.0,0 STARLINK-4180,1 53278U 22086AN  22298.58334491 -.00009772  00000-0 -59624-3 0  9999,2 53278  53.2177 310.7739 0002003  44.8251 133.8177 15.08866476 15165,6917.799,95.436,541.05,538.279,0.0
53278.0,STARLINK-4180,PAYLOAD,2022-10-25 22:00:01,15.08830894,0.0001791,53.2176,309.2757,49.4375,140.9022,0.0017609,0.00027841,0.0,0 STARLINK-4180,1 53278U 22086AN  22298.91668981  .00027841  00000-0  17609-2 0  9991,2 53278  53.2176 309.2757 0001791  49.4375 140.9022 15.08830894  1302,6917.908,95.438,541.012,538.534,0.0
53278.0,STARLINK-4180,PAYLOAD,2022-10-26 14:00:01,15.08866738,0.0001949,53.2174,306.2845,43.1998,170.2688,-0.0029844999999999,-0.00047509,0.0,0 STARLINK-4180,1 53278U 22086AN  22299.58334491 -.00047509  00000-0 -29845-2 0  9991,2 53278  53.2174 306.2845 0001949  43.1998 170.2688 15.08866738  1302,6917.799,95.436,541.012,538.315,0.0
53278.0,STARLINK-4180,PAYLOAD,2022-10-26 22:00:00,15.08810169,0.0001773,53.2175,304.7863,47.3813,177.7051,0.0028886,0.00045947,0.0,0 STARLINK-4180,1 53278U 22086AN  22299.91667824  .00045947  00000-0  28886-2 0  9993,2 53278  53.2175 304.7863 0001773  47.3813 177.7051 15.08810169  1306,6917.972,95.439,541.063,538.61,0.0
53278.0,STARLINK-4180,PAYLOAD,2022-10-27 14:00:01,15.08830932,0.0002108,53.2173,301.7931,41.0454,207.2754,-0.0030544,-0.00048561,0.0,0 STARLINK-4180,1 53278U 22086AN  22300.58335648 -.00048561  00000-0 -30544-2 0  9996,2 53278  53.2173 301.7931 0002108  41.0454 207.2754 15.08830932  1301,6917.908,95.438,541.231,538.315,0.0
53278.0,STARLINK-4180,PAYLOAD,2022-10-27 22:00:00,15.08756885,0.0001969,53.2173,300.2924,47.5652,212.2653,0.0119189999999999,0.00194239,0.0,0 STARLINK-4180,1 53278U 22086AN  22300.91667824  .00194239  00000-0  11919-1 0  9993,2 53278  53.2173 300.2924 0001969  47.5652 212.2653 15.08756885  1300,6918.134,95.443,541.362,538.637,0.0
53278.0,STARLINK-4180,PAYLOAD,2022-10-28 08:00:01,15.08832905,0.0002121999999999,53.2183,298.4285,38.9238,325.421,0.0012324,0.00019376,0.0,0 STARLINK-4180,1 53278U 22086AN  22301.33335648  .00019376  00000-0  12324-2 0  9996,2 53278  53.2183 298.4285 0002122  38.9238 325.4210 15.08832905 15584,6917.901999999999,95.438,541.235,538.299,0.0
53278.0,STARLINK-4180,PAYLOAD,2022-10-28 14:00:01,15.08859349,0.000208,53.2182,297.3057,37.2795,245.7532,-0.00077577,-0.0001262,0.0,0 STARLINK-4180,1 53278U 22086AN  22301.58335648 -.00012620  00000-0 -77577-3 0  9992,2 53278  53.2182 297.3057 0002080  37.2795 245.7532 15.08859349  1308,6917.821,95.436,541.125,538.247,0.0
53278.0,STARLINK-4180,PAYLOAD,2022-10-28 22:00:01,15.08853142,0.0001915,53.2186,295.8078,41.9744,252.677,0.00025869,3.833e-05,0.0,0 STARLINK-4180,1 53278U 22086AN  22301.91668981  .00003833  00000-0  25869-3 0  9999,2 53278  53.2186 295.8078 0001915  41.9744 252.6770 15.08853142  1306,6917.84,95.437,541.03,538.38,0.0
53278.0,STARLINK-4180,PAYLOAD,2022-10-29 12:00:00,15.08849038,0.0002073,53.2187,293.1912,35.3383,189.5787,4.994600000000001e-05,5.07e-06,0.0,0 STARLINK-4180,1 53278U 22086AN  22302.50001157  .00000507  00000-0  49946-4 0  9999,2 53278  53.2187 293.1912 0002073  35.3383 189.5787 15.08849038  1302,6917.853,95.437,541.1519999999998,538.284,0.0
53278.0,STARLINK-4180,PAYLOAD,2022-10-29 22:00:01,15.08846406,0.0001821999999999,53.2191,291.3189,40.304,289.1898,0.0021481,0.00034071,0.0,0 STARLINK-4180,1 53278U 22086AN  22302.91668981  .00034071  00000-0  21481-2 0  9993,2 53278  53.2191 291.3189 0001822  40.3040 289.1898 15.08846406  1306,6917.861,95.437,540.986,538.465,0.0
53278.0,STARLINK-4180,PAYLOAD,2022-10-30 00:00:00,15.08873869,0.0001836,53.2192,290.9452,40.3401,21.9859,-0.00098829,-0.00015997,0.0,0 STARLINK-4180,1 53278U 22086AN  22303.00001157 -.00015997  00000-0 -98829-3 0  9999,2 53278  53.2192 290.9452 0001836  40.3401  21.9859 15.08873869 15836,6917.776999999999,95.435,540.9119999999998,538.372,0.0
53278.0,STARLINK-4180,PAYLOAD,2022-10-30 14:00:01,15.08856225,0.0001924,53.2189,288.3276,32.9742,319.6737,-0.0041965,-0.0006649,0.0,0 STARLINK-4180,1 53278U 22086AN  22303.58334491 -.00066490  00000-0 -41965-2 0  9994,2 53278  53.2189 288.3276 0001924  32.9742 319.6737 15.08856225  1306,6917.831,95.437,541.0269999999998,538.365,0.0
53278.0,STARLINK-4180,PAYLOAD,2022-10-30 22:00:01,15.087988199999998,0.0001786,53.2191,286.8302,40.2608,324.0418,0.0033475,0.00053331,0.0,0 STARLINK-4180,1 53278U 22086AN  22303.91668981  .00053331  00000-0  33475-2 0  9990,2 53278  53.2191 286.8302 0001786  40.2608 324.0418 15.08798820  1303,6918.005999999999,95.44,541.107,538.636,0.0
53278.0,STARLINK-4180,PAYLOAD,2022-10-31 14:00:01,15.08835496,0.0001879,53.2186,283.8389,34.8138,352.5773,-0.0019192,-0.00030699,0.0,0 STARLINK-4180,1 53278U 22086AN  22304.58334491 -.00030699  00000-0 -19192-2 0  9994,2 53278  53.2186 283.8389 0001879  34.8138 352.5773 15.08835496  1300,6917.894,95.438,541.059,538.4590000000002,0.0
53278.0,STARLINK-4180,PAYLOAD,2022-10-31 22:00:01,15.08816519,0.0001716,53.2187,282.3417,40.5492,358.4840000000001,0.003055,0.00048637,0.0,0 STARLINK-4180,1 53278U 22086AN  22304.91668981  .00048637  00000-0  30550-2 0  9995,2 53278  53.2187 282.3417 0001716  40.5492 358.4840 15.08816519  1309,6917.9519999999975,95.439,541.004,538.63,0.0
53278.0,STARLINK-4180,PAYLOAD,2022-11-01 14:00:01,15.0884755,0.0001936,53.218,279.3501,40.6079,21.5571,-0.0010702,-0.00017284,0.0,0 STARLINK-4180,1 53278U 22086AN  22305.58334491 -.00017284  00000-0 -10702-2 0  9998,2 53278  53.2180 279.3501 0001936  40.6079  21.5571 15.08847550 16223,6917.857,95.437,541.062,538.383,0.0
53278.0,STARLINK-4180,PAYLOAD,2022-11-01 22:00:00,15.088528899999998,0.000187,53.218,277.853,47.1792,26.5797,-0.00068257,-0.00011139,0.0,0 STARLINK-4180,1 53278U 22086AN  22305.91667824 -.00011139  00000-0 -68257-3 0  9996,2 53278  53.2180 277.8530 0001870  47.1792  26.5797 15.08852890  1300,6917.840999999999,95.437,541.0,538.4119999999998,0.0
53278.0,STARLINK-4180,PAYLOAD,2022-11-02 14:00:01,15.08832514,0.0001965,53.2174,274.8596,43.4896,53.4478,-0.00091363,-0.00014796,0.0,0 STARLINK-4180,1 53278U 22086AN  22306.58334491 -.00014796  00000-0 -91363-3 0  9997,2 53278  53.2174 274.8596 0001965  43.4896  53.4478 15.08832514  1307,6917.903,95.438,541.128,538.409,0.0
53278.0,STARLINK-4180,PAYLOAD,2022-11-02 18:00:02,15.088047199999998,0.0001845,53.2175,274.1089,45.6944,237.1049,0.003358,0.00053509,0.0,0 STARLINK-4180,1 53278U 22086AN  22306.75002315  .00053509  00000-0  33580-2 0  9992,2 53278  53.2175 274.1089 0001845  45.6944 237.1049 15.08804720  1306,6917.988,95.44,541.13,538.577,0.0
53278.0,STARLINK-4180,PAYLOAD,2022-11-03 03:52:49,15.0884416,0.000189,53.2201,272.2641,44.5953,315.5191,7.1929e-05,8.57e-06,0.0,0 STARLINK-4180,1 53278U 22086AN  22307.16168628  .00000857  00000-0  71929-4 0  9997,2 53278  53.2201 272.2641 0001890  44.5953 315.5191 15.08844160 16461,6917.868,95.437,541.04,538.425,0.0
53278.0,STARLINK-4180,PAYLOAD,2022-11-03 08:38:58,15.08847846,0.0002078,53.2193,271.3716,44.8014,315.3146,9.7527e-05,1.265e-05,0.0,0 STARLINK-4180,1 53278U 22086AN  22307.36040225  .00001265  00000-0  97527-4 0  9997,2 53278  53.2193 271.3716 0002078  44.8014 315.3146 15.08847846 16668,6917.856,95.437,541.159,538.284,0.0
53278.0,STARLINK-4180,PAYLOAD,2022-11-03 21:22:03,15.088482199999998,0.0001917,53.2196,268.9916,47.4095,312.7059,8.1438e-05,1.008e-05,0.0,0 STARLINK-4180,1 53278U 22086AN  22307.89031924  .00001008  00000-0  81438-4 0  9990,2 53278  53.2196 268.9916 0001917  47.4095 312.7059 15.08848220 16744,6917.855,95.437,541.0459999999998,538.394,0.0
53278.0,STARLINK-4180,PAYLOAD,2022-11-04 03:43:36,15.08845372,0.0001817,53.2211,267.8005,43.9396,316.1741,-3.4093e-05,-8.31e-06,0.0,0 STARLINK-4180,1 53278U 22086AN  22308.15528443 -.00000831  00000-0 -34093-4 0  9997,2 53278  53.2211 267.8005 0001817  43.9396 316.1741 15.08845372 16788,6917.864000000001,95.437,540.986,538.472,0.0
53278.0,STARLINK-4180,PAYLOAD,2022-11-04 18:02:05,15.08828598,0.0001714,53.2218,265.1276,52.7311,307.3837,-2.9029e-05,-7.4999999999999985e-06,0.0,0 STARLINK-4180,1 53278U 22086AN  22308.75145544 -.00000750  00000-0 -29029-4 0  9993,2 53278  53.2218 265.1276 0001714  52.7311 307.3837 15.08828598 16708,6917.915,95.438,540.966,538.595,0.0
53278.0,STARLINK-4180,PAYLOAD,2022-11-05 03:34:25,15.08831885,0.0001536,53.2218,263.3426,49.7548,310.3578,-0.00016286,-2.878e-05,0.0,0 STARLINK-4180,1 53278U 22086AN  22309.14890095 -.00002878  00000-0 -16286-3 0  9998,2 53278  53.2218 263.3426 0001536  49.7548 310.3578 15.08831885 16939,6917.905,95.438,540.8330000000002,538.7080000000002,0.0
53278.0,STARLINK-4180,PAYLOAD,2022-11-06 03:25:11,15.08834874,0.0001669,53.2206,258.8815,44.4391,315.6734,-1.0868e-05,-4.61e-06,0.0,0 STARLINK-4180,1 53278U 22086AN  22310.14249785 -.00000461  00000-0 -10868-4 0  9991,2 53278  53.2206 258.8815 0001669  44.4391 315.6734 15.08834874 16913,6917.896,95.438,540.9159999999998,538.606,0.0
